row_id,source,first,last,city,state,zip,dob
1,100,Stephanie,Young,EasT phIlLIpfurT,tX,11788,1925-02-07
2,100,MICHAEL,HART,nOrtH andreavILle,mo,87773,2025-06-20
3,100,kimberly,guerra,wEst TODD,oH,86154,1932-02-06
4,100,taMmY,pErry,eAst LeAHMouTh,CA,69437,1942-01-08
5,100,CoLIn,robINsON,lAke laUraBurY,vT,17358,2003-08-12
6,100,JacquelINE,SCoTt,wesT elizABEtH,fl,66836,1991-05-29
7,100,joshUa,KelLy,tImOthyvillE,Sc,93630,1984-02-01
8,100,brIAn,oliVer,SoutH tErESAFOrt,Md,11712,1965-07-13
9,100,jAMEs,VILlArREaL,SoUtH MELissa,AK,59056,1930-03-06
10,100,mIChAeL,brOwn,fRaNcIsTOwN,pW,47258,2020-08-03
11,100,BriANNa,ColeMan,JANEsiDe,ak,77997,1935-12-01
12,100,kATHLeen,PHam,NORTh DaVIDMOUTH,FM,33899,1976-09-13
13,100,aLicIa,laWReNCe,HaRrIsShiRe,Or,43354,1943-05-25
14,100,KYLe,PrOCtOR,DAVIsBury,fl,82243,1941-06-10
15,100,CARoL,BOYLE,thOMasPOrT,rI,78669,1937-10-25
16,100,krISTIna,OSBORne,noRTH AmY,DC,67458,2007-11-07
17,100,DYlAN,KNAPp,HaLLberg,nJ,38602,1952-11-08
18,100,JASmIne,wAlsH,RuizTOn,ne,94085,2010-01-01
19,100,lori,POWeLL,gardNErbURgH,vt,01250,1997-02-12
20,100,niCOle,harRIngtoN,ChRIStInEMouth,Fl,06876,1913-11-14
21,100,jOsHua,gaLlEgOS,jIMMYBUrgH,ct,10822,1954-03-01
22,100,CHRIStiaN,WHitE,lAkE jeREMY,Mo,52061,1942-07-29
23,100,tHOMAs,HENdeRSOn,juANside,Wi,80190,1932-10-25
24,100,LiSA,SmAlL,NeW ANDrew,al,39184,1988-01-09
25,100,CHarLEs,VaLDEz,souTh kATeLYNMOutH,nh,60687,1931-12-09
26,100,kelLy,wILLIAMs,tyRONeTown,AL,84585,1950-05-06
27,100,toNYa,PriCE,HickspOrT,ME,23240,1920-10-23
28,100,BArBARa,aNDErson,TerREllSHIRe,Al,71081,1995-09-29
29,100,SaNDRA,jOSePH,AsHLeytOWn,Mi,37404,1960-08-28
30,100,MIchael,loWe,SmIthcHEStEr,kS,14848,1949-10-09
31,100,lIsA,NEal,weSt KELlYBuRGH,vi,27602,1969-07-23
32,100,KriSty,wYATt,New deREK,vT,02687,1922-08-10
33,100,sCOTT,CHambErs,TRACyMOUTH,La,18408,1933-04-27
34,100,mArC,WaLtERs,sOuth DUstInbuRGh,fL,35412,1957-02-02
35,100,dakotA,McDowelL,caRLAFuRt,FM,83045,1958-02-16
36,100,joHN,MILlER,CarLoSfURT,AL,40766,1949-01-19
37,100,daniel,smiTh,cAmpOSCHesTer,OR,58296,1989-11-06
38,100,anDrEa,BoWMAn,joElbErG,ky,02889,1989-10-24
39,100,tONyA,rEEves,south aNgeLA,Vt,35040,2006-09-28
40,100,LAURIE,harrIS,East CarLy,Pa,16680,2011-12-23
41,100,ChelSEa,lAnDrY,swANSONMOUTh,ak,71363,1972-03-06
42,100,daniELlE,HinES,lAkE StEPhanIeVIeW,mt,64285,1970-04-24
43,100,KiMBERLy,hAnsEN,pAtRicklaND,aL,23476,1942-10-30
44,100,micHael,MEdina,WesT lInDsEY,dc,42235,2013-10-26
45,100,TimoThY,sAMPSON,soUtH coLIn,PR,32968,1993-08-20
46,100,rIckY,mARtineZ,EasT sHeilalANd,AL,91886,1983-12-16
47,100,JEaN,lawrEnce,nortH garY,sD,50147,1961-04-13
48,100,ShIrLey,paRk,MaSOnFort,MD,95872,1957-06-14
49,100,stepHaniE,bRoOKS,KIMbERLySHiRE,sD,49113,1996-08-12
50,100,tARa,aLExandEr,ELLIsvIew,sc,95841,1966-11-28
51,100,DebORAh,butler,SANDrAtON,oh,80999,1987-07-12
52,100,jOsE,HOLdER,pORT jANEtpoRT,ne,94721,1955-08-21
53,100,LoUIS,mARTinEz,eAsT TAyLOrstad,MN,36738,1988-12-13
54,100,JasoN,baRnEs,PorT JESSicA,or,94589,1997-04-23
55,100,RebEcca,WriGHT,MIcHaElBeRG,La,18409,1994-06-29
56,100,amBEr,ParkEr,RobERtMOUTH,MS,91203,1999-07-05
57,100,lIsA,CHUrch,nORth NiChOLE,Md,83778,1921-05-04
58,100,aNDRea,AusTiN,LakE sHARoN,ct,33375,1928-03-03
59,100,saNdRa,MIllER,laKe DaWn,aK,76718,2014-12-11
60,100,braDleY,GOoD,NoRTH ELIzAbEth,Pw,53944,1917-06-16
61,100,michael,ShermAn,heRnaNdEzlanD,Ar,75576,1971-11-15
62,100,tina,BUrns,rIOStoN,OK,03897,1945-03-02
63,100,juStIN,FIsher,baNkSVieW,nj,09214,1948-12-02
64,100,mArIE,fULler,sOuTH DoUGlasLANd,pA,34272,1966-03-07
65,100,STEphANIE,DaY,GAbRIElBorough,PW,70218,1927-06-17
66,100,lISA,aGUILar,pArKeRToWn,AR,52489,1954-04-14
67,100,DomiNiC,FrANCis,daVIdBoRougH,wI,48632,1922-01-12
68,100,ApRIL,reyes,nEW coURTNEYton,az,43395,1955-07-27
69,100,amY,MILLER,wEST asHleyBurGH,MT,76125,1969-07-21
70,100,RoNaLD,GRaham,LaRSEnBoroUgH,iA,13647,2006-06-27
71,100,TravIS,sAncHez,SYLVIaSiDE,gu,21854,1974-04-24
72,100,WILLIE,batEs,LaKE JEanETTEstAD,ri,78451,1935-10-02
73,100,LIsa,blaNKensHip,STEphaniEberg,mO,00838,1968-11-25
74,100,WhITnEy,garciA,NIcolEburY,va,50598,2003-05-01
75,100,cindY,mOrriSoN,lAKe gEORGE,NV,52059,2019-04-02
76,100,keLseY,FiSHer,NEw jennYbeRg,DE,20236,1972-01-24
77,100,vERONiCa,PIERCe,trAvISBOroUGh,vA,74909,1919-05-06
78,100,ADAm,SMITH,RaMiREZbERG,or,39665,1973-10-04
79,100,DOnNA,wilSON,liNDaCHEstER,As,45875,1966-08-10
80,100,wHItNeY,cOLliNs,MorGANfURt,Nm,49606,1947-12-24
81,100,lARRy,cOOK,wAtSOnmOuTh,gu,35464,2011-10-03
82,100,AsHLEY,bLankenshiP,BILLyVIllE,mN,44291,2017-01-15
83,100,roBeRt,COLeMaN,EAsT BRyaN,Nv,86960,1993-03-03
84,100,KimBERly,mOsEs,roLLinSPOrt,vI,80002,1951-06-14
85,100,MIchELLE,sMitH,ISAIahMouTH,mT,98718,2020-07-06
86,100,lauRA,MorALes,CHRISTYTON,Pr,72865,1916-08-24
87,100,LINdA,McKay,EasT GeoffrEy,Nc,02548,2022-07-05
88,100,sHannon,adamS,SarAhtoN,DE,67933,2018-05-05
89,100,kAtHrYn,wiLSON,buRKEHaVeN,As,35570,2001-01-14
90,100,tAMMy,gReEN,rOdGeRStoWn,Vt,99674,1917-07-31
91,100,rOBERt,Pace,sheRRyfURT,NM,85437,1961-06-04
92,100,brANdoN,May,soUth eMIlYHaVeN,co,66133,1924-05-11
93,100,jOseph,pEReZ,GRAYBeRg,Ok,27714,1932-03-09
94,100,LAurA,whITe,lake SaRAhTON,Ok,36465,1993-03-18
95,100,jAmES,cOnWAy,waRdsIDE,wA,43238,2020-10-31
96,100,rONaLD,EvaNS,MccAnntoWn,GU,13121,1922-05-06
97,100,RobErT,rochA,lAke PAUla,Sc,95692,2002-01-30
98,100,maRk,cHen,neW eboNyFURt,Nc,34342,2011-12-03
99,100,jAmES,SIlVa,pOrT dANIEl,ND,31544,2020-12-17
100,100,RoberT,mACDonAld,HANNAhVieW,id,83832,1918-06-19
